{"fetched_at":"2026-03-29T16:36:15Z","count":15609,"tles":[{"name":"STARLINK-30928","line1":"1 58452U 23183R   26087.89987558  .00006030  00000+0  23428-3 0  9993","line2":"2 58452  43.0033 293.0139 0001585 272.7937  87.2733 15.26742835129669","category":"Starlink"}]}