{
  "norad_id": 58452,
  "name": "STARLINK-30928",
  "history": [
    {
      "epoch": "2026-03-28T21:35:49.250112Z",
      "apogee_km": 486.64491010718666,
      "perigee_km": 484.46911910455674,
      "latitude_deg": 5.832952562703388e-06,
      "longitude_deg": 142.745003648619,
      "height_km": 485.2812991251702,
      "semi_major_axis_km": 6863.694014605871,
      "eccentricity": 0.0001585,
      "inclination_deg": 43.0033,
      "raan_deg": 293.0139,
      "arg_perigee_deg": 272.7937,
      "mean_anomaly_deg": 87.2733,
      "mean_motion_rev_day": 15.26742835
    }
  ]
}